COSMOS 2433 (720)       
1 32275C 07052A   23291.99979167  .00000000  00000-0  00000-0 0  2912
2 32275  66.0095 348.4512 0005038 238.2330  59.2278  2.13103981    13
COSMOS 2432 (719)       
1 32276C 07052B   23291.99979167  .00000000  00000-0  00000-0 0  2913
2 32276  66.0240 348.5607 0009723 312.0509 292.3318  2.13103067    16
COSMOS 2434 (721)       
1 32393C 07065A   23291.99979167  .00000000  00000-0  00000-0 0  2917
2 32393  64.3321 224.7895 0001815  67.3929 121.3902  2.13102956    17
COSMOS 2436 (723)       
1 32395C 07065C   23291.99979167  .00000000  00000-0  00000-0 0  2919
2 32395  64.3408 224.8516 0016351 358.3314 325.9138  2.13102603    10
COSMOS 2456 (730)       
1 36111C 09070A   23291.99979167 -.00000000  00000-0  00000-0 0  2918
2 36111  64.5101 104.2727 0001182 331.1025  16.2062  2.13099073    13
COSMOS 2457 (733)       
1 36112C 09070B   23291.99979167 -.00000000  00000-0  00000-0 0  2919
2 36112  64.4941 104.1369 0006550 148.6063 329.8401  2.13101175    10
COSMOS 2460 (732)       
1 36402C 10007C   23291.99979167  .00000000  00000-0  00000-0 0  2912
2 36402  65.8711 347.1590 0002071 235.2024 232.1597  2.13106163    15
COSMOS 2476 (744)       
1 37867C 11064A   23291.99979167 -.00000000  00000-0  00000-0 0  2913
2 37867  64.7889 105.8168 0021499 229.9602  27.0426  2.13101729    17
COSMOS 2477 (745)       
1 37868C 11064B   23291.99979167 -.00000000  00000-0  00000-0 0  2914
2 37868  64.7962 105.8868 0018717 230.1261 204.7409  2.13101479    18
COSMOS 2475 (743)       
1 37869C 11064C   23291.99979167 -.00000000  00000-0  00000-0 0  2915
2 37869  64.8034 105.8994 0022647 248.4846 144.9107  2.13101772    14
COSMOS 2485 (747)       
1 39155C 13019A   23291.99979167 -.00000000  00000-0  00000-0 0  2917
2 39155  64.9488 106.3500 0022069 225.9573  75.4433  2.13101840    18
COSMOS 2492 (754)       
1 39620C 14012A   23291.99979167  .00000000  00000-0  00000-0 0  2917
2 39620  65.7545 346.7710 0012946 311.2830  24.3314  2.13103098    17
COSMOS 2500 (755)       
1 40001C 14032A   23291.99979167  .00000000  00000-0  00000-0 0  2914
2 40001  65.6926 346.5951 0008578 210.7413 344.7742  2.13105784    13
COSMOS 2501 (702K)      
1 40315C 14075A   23291.99979167  .00000000  00000-0  00000-0 0  2919
2 40315  63.6352 224.1043 0019154 209.2624 154.0286  2.13101176    10
COSMOS 2514 (751)       
1 41330C 16008A   23291.99979167  .00000000  00000-0  00000-0 0  2915
2 41330  65.4895 346.1652 0012436 215.6673 161.9182  2.13102595    10
COSMOS 2522 (752)       
1 42939C 17055A   23291.99979167  .00000000  00000-0  00000-0 0  2914
2 42939  64.0958 225.0559 0008257 242.2653 256.8167  2.13101927    17
COSMOS 2527 (756)       
1 43508C 18053A   23291.99979167 -.00000000  00000-0  00000-0 0  2917
2 43508  65.1100 106.4517 0007717 213.1494 317.6759  2.13102307    13
COSMOS 2529 (757)       
1 43687C 18086A   23291.99979167  .00000000  00000-0  00000-0 0  2910
2 43687  64.3112 225.5034 0009935 264.1318 190.4161  2.13102015    17
COSMOS 2534 (758)       
1 44299C 19030A   23291.99979167  .00000000  00000-0  00000-0 0  2910
2 44299  64.3839 225.4340 0012303 285.2503 303.5499  2.13101766    18
COSMOS 2544 (759)       
1 44850C 19088A   23291.99979167 -.00000000  00000-0  00000-0 0  2917
2 44850  65.0961 106.2937 0011278 247.5582 326.3279  2.13102128    13
COSMOS 2545 (760)       
1 45358C 20018A   23291.99979167  .00000000  00000-0  00000-0 0  2915
2 45358  64.8297 346.3738 0011405 243.7116 179.1713  2.13102520    18
COSMOS 2547 (705K)      
1 46805C 20075A   23291.99979167  .00000000  00000-0  00000-0 0  2916
2 46805  64.6115 225.0033 0007430 243.6101  34.4480  2.13102727    13
COSMOS 2557 (706K)      
1 52984C 20075A   23291.99979167  .00000000  00000-0  00000-0 0  2911
2 52984  64.7478 348.5284 0013151 275.6925 237.4212  2.13102105    14
COSMOS 2559 (707K)      
1 54031C 22130A   23291.99979167  .00000000  00000-0  00000-0 0  2910
2 54031  64.7191 348.6544 0007854 225.1311 332.4634  2.13101312    16
COSMOS 2564 (761)       
1 54377C 22161A   23291.99979167  .00000000  00000-0  00000-0 0  2917
2 54377  64.7523 225.0644 0009482 222.5413 187.0286  2.13102170    10
COSMOS 2569 (703K)      
1 57517C 23114A   23291.99979167 -.00000000  00000-0  00000-0 0  2916
2 57517  64.8195 105.5313 0008610 294.6658 100.0481  2.13104020    11
